{"type": "FeatureCollection", "features": [ {"type": "Feature", "properties": {"norad_id": 39586, "name": "COSMOS 2251 DEB", "group": "cosmos-2251-debris", "lat": 48.38876989921019, "lon": 36.31465086695289, "alt_km": 850.2886093603056, "timestamp": "2025-12-08T21:31:05.064785+00:00", "meta": {"OBJECT_NAME": "COSMOS 2251 DEB", "OBJECT_ID": "1993-036BUR", "EPOCH": "2025-12-04T00:26:07.876608", "MEAN_MOTION": 14.21195867, "ECCENTRICITY": 0.01003221, "INCLINATION": 74.0095, "RA_OF_ASC_NODE": 243.9042, "ARG_OF_PERICENTER": 20.3845, "MEAN_ANOMALY": 357.5964, "EPHEMERIS_TYPE": 0, "CLASSIFICATION_TYPE": "U", "NORAD_CAT_ID": 39586, "ELEMENT_SET_NO": 999, "REV_AT_EPOCH": 60848, "BSTAR": 0.00088936605, "MEAN_MOTION_DOT": 2.011e-05, "MEAN_MOTION_DDOT": 0}, "tle": {"line1": "1 39586U 93036BUR 25338.01814672  .00002011  00000+0  88937-3 0  9993", "line2": "2 39586  74.0095 243.9042 0100322  20.3845 357.5964 14.21195867608481"}}, "geometry": {"type": "Point", "coordinates": [36.31465086695289, 48.38876989921019]}}, {"type": "Feature", "properties": {"norad_id": 39591, "name": "COSMOS 2251 DEB", "group": "cosmos-2251-debris", "lat": 73.86305517836645, "lon": -8.20775312900222, "alt_km": 742.7290754759333, "timestamp": "2025-12-08T21:31:05.064795+00:00", "meta": {"OBJECT_NAME": "COSMOS 2251 DEB", "OBJECT_ID": "1993-036BUW", "EPOCH": "2025-12-07T12:37:20.058240", "MEAN_MOTION": 14.41797082, "ECCENTRICITY": 0.00291403, "INCLINATION": 74.0183, "RA_OF_ASC_NODE": 256.4312, "ARG_OF_PERICENTER": 11.534, "MEAN_ANOMALY": 168.8103, "EPHEMERIS_TYPE": 0, "CLASSIFICATION_TYPE": "U", "NORAD_CAT_ID": 39591, "ELEMENT_SET_NO": 999, "REV_AT_EPOCH": 61701, "BSTAR": 0.00067199948, "MEAN_MOTION_DOT": 2.18e-05, "MEAN_MOTION_DDOT": 0}, "tle": {"line1": "1 39591U 93036BUW 25341.52592660  .00002180  00000+0  67200-3 0  9996", "line2": "2 39591  74.0183 256.4312 0029140  11.5340 168.8103 14.41797082617010"}}, "geometry": {"type": "Point", "coordinates": [-8.20775312900222, 73.86305517836645]}}, {"type": "Feature", "properties": {"norad_id": 40218, "name": "COSMOS 2251 DEB", "group": "cosmos-2251-debris", "lat": -10.693469126234026, "lon": -107.14684490120426, "alt_km": 745.7139452365564, "timestamp": "2025-12-08T21:31:05.064806+00:00", "meta": {"OBJECT_NAME": "COSMOS 2251 DEB", "OBJECT_ID": "1993-036BUX", "EPOCH": "2025-12-02T02:20:48.132384", "MEAN_MOTION": 14.41546301, "ECCENTRICITY": 0.00163619, "INCLINATION": 74.0309, "RA_OF_ASC_NODE": 268.5457, "ARG_OF_PERICENTER": 353.795, "MEAN_ANOMALY": 6.3, "EPHEMERIS_TYPE": 0, "CLASSIFICATION_TYPE": "U", "NORAD_CAT_ID": 40218, "ELEMENT_SET_NO": 999, "REV_AT_EPOCH": 58708, "BSTAR": 0.00047133972, "MEAN_MOTION_DOT": 1.508e-05, "MEAN_MOTION_DDOT": 0}, "tle": {"line1": "1 40218U 93036BUX 25336.09777931  .00001508  00000+0  47134-3 0  9993", "line2": "2 40218  74.0309 268.5457 0016361 353.7950   6.3000 14.41546301587082"}}, "geometry": {"type": "Point", "coordinates": [-107.14684490120426, -10.693469126234026]}}, {"type": "Feature", "properties": {"norad_id": 40223, "name": "COSMOS 2251 DEB", "group": "cosmos-2251-debris", "lat": -5.515514183857528, "lon": -81.805856090014, "alt_km": 564.8932107400069, "timestamp": "2025-12-08T21:31:05.064816+00:00", "meta": {"OBJECT_NAME": "COSMOS 2251 DEB", "OBJECT_ID": "1993-036BVC", "EPOCH": "2025-12-08T14:22:54.793056", "MEAN_MOTION": 15.02834877, "ECCENTRICITY": 0.00148064, "INCLINATION": 73.9387, "RA_OF_ASC_NODE": 97.2103, "ARG_OF_PERICENTER": 296.3007, "MEAN_ANOMALY": 81.4617, "EPHEMERIS_TYPE": 0, "CLASSIFICATION_TYPE": "U", "NORAD_CAT_ID": 40223, "ELEMENT_SET_NO": 999, "REV_AT_EPOCH": 59312, "BSTAR": 0.0057042837, "MEAN_MOTION_DOT": 0.00077422, "MEAN_MOTION_DDOT": 0}, "tle": {"line1": "1 40223U 93036BVC 25342.59924529  .00077422  00000+0  57043-2 0  9995", "line2": "2 40223  73.9387  97.2103 0014806 296.3007  81.4617 15.02834877593120"}}, "geometry": {"type": "Point", "coordinates": [-81.805856090014, -5.515514183857528]}}, {"type": "Feature", "properties": {"norad_id": 40228, "name": "COSMOS 2251 DEB", "group": "cosmos-2251-debris", "lat": -62.51042490403607, "lon": 120.9617247497109, "alt_km": 759.7837908106976, "timestamp": "2025-12-08T21:31:05.064826+00:00", "meta": {"OBJECT_NAME": "COSMOS 2251 DEB", "OBJECT_ID": "1993-036BVH", "EPOCH": "2025-12-07T13:33:16.737984", "MEAN_MOTION": 14.40975918, "ECCENTRICITY": 0.00238751, "INCLINATION": 74.0543, "RA_OF_ASC_NODE": 270.0925, "ARG_OF_PERICENTER": 332.416, "MEAN_ANOMALY": 209.1246, "EPHEMERIS_TYPE": 0, "CLASSIFICATION_TYPE": "U", "NORAD_CAT_ID": 40228, "ELEMENT_SET_NO": 999, "REV_AT_EPOCH": 58846, "BSTAR": 0.0006394623, "MEAN_MOTION_DOT": 2.035e-05, "MEAN_MOTION_DDOT": 0}, "tle": {"line1": "1 40228U 93036BVH 25341.56477706  .00002035  00000+0  63946-3 0  9994", "line2": "2 40228  74.0543 270.0925 0023875 332.4160 209.1246 14.40975918588463"}}, "geometry": {"type": "Point", "coordinates": [120.9617247497109, -62.51042490403607]}}, {"type": "Feature", "properties": {"norad_id": 40230, "name": "COSMOS 2251 DEB", "group": "cosmos-2251-debris", "lat": -60.45384691899858, "lon": -156.21365983294893, "alt_km": 721.1772078501954, "timestamp": "2025-12-08T21:31:05.064837+00:00", "meta": {"OBJECT_NAME": "COSMOS 2251 DEB", "OBJECT_ID": "1993-036BVK", "EPOCH": "2025-12-05T11:49:12.794880", "MEAN_MOTION": 14.49259606, "ECCENTRICITY": 0.00191133, "INCLINATION": 74.0458, "RA_OF_ASC_NODE": 240.4744, "ARG_OF_PERICENTER": 299.5216, "MEAN_ANOMALY": 242.5097, "EPHEMERIS_TYPE": 0, "CLASSIFICATION_TYPE": "U", "NORAD_CAT_ID": 40230, "ELEMENT_SET_NO": 999, "REV_AT_EPOCH": 58866, "BSTAR": 0.0014637297, "MEAN_MOTION_DOT": 5.571e-05, "MEAN_MOTION_DDOT": 0}, "tle": {"line1": "1 40230U 93036BVK 25339.49250920  .00005571  00000+0  14637-2 0  9993", "line2": "2 40230  74.0458 240.4744 0019113 299.5216 242.5097 14.49259606588661"}}, "geometry": {"type": "Point", "coordinates": [-156.21365983294893, -60.45384691899858]}}, {"type": "Feature", "properties": {"norad_id": 40233, "name": "COSMOS 2251 DEB", "group": "cosmos-2251-debris", "lat": -6.161336186382535, "lon": 108.68369720912061, "alt_km": 733.7893607204123, "timestamp": "2025-12-08T21:31:05.064847+00:00", "meta": {"OBJECT_NAME": "COSMOS 2251 DEB", "OBJECT_ID": "1993-036BVN", "EPOCH": "2025-12-04T02:17:52.292832", "MEAN_MOTION": 14.58236674, "ECCENTRICITY": 0.00461905, "INCLINATION": 73.9387, "RA_OF_ASC_NODE": 119.6526, "ARG_OF_PERICENTER": 195.886, "MEAN_ANOMALY": 164.0859, "EPHEMERIS_TYPE": 0, "CLASSIFICATION_TYPE": "U", "NORAD_CAT_ID": 40233, "ELEMENT_SET_NO": 999, "REV_AT_EPOCH": 59011, "BSTAR": 0.0029314151, "MEAN_MOTION_DOT": 0.00013736, "MEAN_MOTION_DDOT": 0}, "tle": {"line1": "1 40233U 93036BVN 25338.09574413  .00013736  00000+0  29314-2 0  9997", "line2": "2 40233  73.9387 119.6526 0046190 195.8860 164.0859 14.58236674590113"}}, "geometry": {"type": "Point", "coordinates": [108.68369720912061, -6.161336186382535]}}, {"type": "Feature", "properties": {"norad_id": 40236, "name": "COSMOS 2251 DEB", "group": "cosmos-2251-debris", "lat": 70.78965801938449, "lon": -88.25999375659175, "alt_km": 999.7086391252569, "timestamp": "2025-12-08T21:31:05.064857+00:00", "meta": {"OBJECT_NAME": "COSMOS 2251 DEB", "OBJECT_ID": "1993-036BVR", "EPOCH": "2025-12-07T17:52:23.026080", "MEAN_MOTION": 13.24639967, "ECCENTRICITY": 0.05366128, "INCLINATION": 73.5349, "RA_OF_ASC_NODE": 151.6266, "ARG_OF_PERICENTER": 32.3576, "MEAN_ANOMALY": 330.9258, "EPHEMERIS_TYPE": 0, "CLASSIFICATION_TYPE": "U", "NORAD_CAT_ID": 40236, "ELEMENT_SET_NO": 999, "REV_AT_EPOCH": 53558, "BSTAR": 0.0015786255, "MEAN_MOTION_DOT": 1.455e-05, "MEAN_MOTION_DDOT": 0}, "tle": {"line1": "1 40236U 93036BVR 25341.74471095  .00001455  00000+0  15786-2 0  9991", "line2": "2 40236  73.5349 151.6266 0536612  32.3576 330.9258 13.24639967535580"}}, "geometry": {"type": "Point", "coordinates": [-88.25999375659175, 70.78965801938449]}}, {"type": "Feature", "properties": {"norad_id": 40238, "name": "COSMOS 2251 DEB", "group": "cosmos-2251-debris", "lat": -7.01991091784648, "lon": -108.47186484749842, "alt_km": 1500.3264619436668, "timestamp": "2025-12-08T21:31:05.064868+00:00", "meta": {"OBJECT_NAME": "COSMOS 2251 DEB", "OBJECT_ID": "1993-036BVT", "EPOCH": "2025-12-04T13:20:38.533056", "MEAN_MOTION": 13.25091202, "ECCENTRICITY": 0.0549745, "INCLINATION": 73.9885, "RA_OF_ASC_NODE": 76.1652, "ARG_OF_PERICENTER": 49.7266, "MEAN_ANOMALY": 315.0566, "EPHEMERIS_TYPE": 0, "CLASSIFICATION_TYPE": "U", "NORAD_CAT_ID": 40238, "ELEMENT_SET_NO": 999, "REV_AT_EPOCH": 53928, "BSTAR": 0.0023519, "MEAN_MOTION_DOT": 2.29e-05, "MEAN_MOTION_DDOT": 0}, "tle": {"line1": "1 40238U 93036BVT 25338.55600154  .00002290  00000+0  23519-2 0  9999", "line2": "2 40238  73.9885  76.1652 0549745  49.7266 315.0566 13.25091202539282"}}, "geometry": {"type": "Point", "coordinates": [-108.47186484749842, -7.01991091784648]}}, {"type": "Feature", "properties": {"norad_id": 40239, "name": "COSMOS 2251 DEB", "group": "cosmos-2251-debris", "lat": -70.66878846511828, "lon": 157.9021234256806, "alt_km": 736.9707051075375, "timestamp": "2025-12-08T21:31:05.064878+00:00", "meta": {"OBJECT_NAME": "COSMOS 2251 DEB", "OBJECT_ID": "1993-036BVU", "EPOCH": "2025-12-07T03:20:57.988320", "MEAN_MOTION": 14.61953613, "ECCENTRICITY": 0.00846067, "INCLINATION": 74.0321, "RA_OF_ASC_NODE": 286.5589, "ARG_OF_PERICENTER": 39.3836, "MEAN_ANOMALY": 336.7087, "EPHEMERIS_TYPE": 0, "CLASSIFICATION_TYPE": "U", "NORAD_CAT_ID": 40239, "ELEMENT_SET_NO": 999, "REV_AT_EPOCH": 59529, "BSTAR": 0.00078994499, "MEAN_MOTION_DOT": 4.135e-05, "MEAN_MOTION_DDOT": 0}, "tle": {"line1": "1 40239U 93036BVU 25341.13956005  .00004135  00000+0  78994-3 0  9995", "line2": "2 40239  74.0321 286.5589 0084606  39.3836 336.7087 14.61953613595299"}}, "geometry": {"type": "Point", "coordinates": [157.9021234256806, -70.66878846511828]}}]}